[
  {
    "OBJECT_NAME": "CUBESX-HSE 3 (RS42S)",
    "OBJECT_ID": "2023-091N",
    "EPOCH": "2025-04-16T22:35:48.192000",
    "MEAN_MOTION": 15.19456703,
    "ECCENTRICITY": 0.0015372,
    "INCLINATION": 97.5659,
    "RA_OF_ASC_NODE": 164.53,
    "ARG_OF_PERICENTER": 145.8813,
    "MEAN_ANOMALY": 214.3412,
    "EPHEMERIS_TYPE": 0,
    "CLASSIFICATION_TYPE": "U",
    "NORAD_CAT_ID": 57178,
    "ELEMENT_SET_NO": 999,
    "REV_AT_EPOCH": 9946,
    "BSTAR": 0.0019709,
    "MEAN_MOTION_DOT": 0.00042051,
    "MEAN_MOTION_DDOT": 0
  },
  {
    "OBJECT_NAME": "MONITOR-3 (RS58S)",
    "OBJECT_ID": "2023-091Q",
    "EPOCH": "2025-04-16T21:54:15.521760",
    "MEAN_MOTION": 15.17956713,
    "ECCENTRICITY": 0.0015802,
    "INCLINATION": 97.5653,
    "RA_OF_ASC_NODE": 163.9017,
    "ARG_OF_PERICENTER": 147.9999,
    "MEAN_ANOMALY": 212.2198,
    "EPHEMERIS_TYPE": 0,
    "CLASSIFICATION_TYPE": "U",
    "NORAD_CAT_ID": 57180,
    "ELEMENT_SET_NO": 999,
    "REV_AT_EPOCH": 9942,
    "BSTAR": 0.0019186,
    "MEAN_MOTION_DOT": 0.00039193,
    "MEAN_MOTION_DDOT": 0
  },
  {
    "OBJECT_NAME": "MONITOR-4 (RS57S)",
    "OBJECT_ID": "2023-091S",
    "EPOCH": "2025-04-16T21:51:24.809184",
    "MEAN_MOTION": 15.18000679,
    "ECCENTRICITY": 0.0015824,
    "INCLINATION": 97.5648,
    "RA_OF_ASC_NODE": 163.8577,
    "ARG_OF_PERICENTER": 148.5728,
    "MEAN_ANOMALY": 211.6454,
    "EPHEMERIS_TYPE": 0,
    "CLASSIFICATION_TYPE": "U",
    "NORAD_CAT_ID": 57182,
    "ELEMENT_SET_NO": 999,
    "REV_AT_EPOCH": 9942,
    "BSTAR": 0.0019748,
    "MEAN_MOTION_DOT": 0.00040401,
    "MEAN_MOTION_DDOT": 0
  },
  {
    "OBJECT_NAME": "MONITOR-2 (RS39S)",
    "OBJECT_ID": "2023-091U",
    "EPOCH": "2025-04-16T22:40:07.447296",
    "MEAN_MOTION": 15.1373366,
    "ECCENTRICITY": 0.0013787,
    "INCLINATION": 97.566,
    "RA_OF_ASC_NODE": 162.9474,
    "ARG_OF_PERICENTER": 144.8515,
    "MEAN_ANOMALY": 215.3628,
    "EPHEMERIS_TYPE": 0,
    "CLASSIFICATION_TYPE": "U",
    "NORAD_CAT_ID": 57184,
    "ELEMENT_SET_NO": 999,
    "REV_AT_EPOCH": 9936,
    "BSTAR": 0.0011188,
    "MEAN_MOTION_DOT": 0.00020179,
    "MEAN_MOTION_DDOT": 0
  },
  {
    "OBJECT_NAME": "SVYATOBOR 1 (RS60S)",
    "OBJECT_ID": "2023-091X",
    "EPOCH": "2025-04-16T22:38:43.683360",
    "MEAN_MOTION": 15.17927255,
    "ECCENTRICITY": 0.0012859,
    "INCLINATION": 97.5659,
    "RA_OF_ASC_NODE": 164.6439,
    "ARG_OF_PERICENTER": 138.6037,
    "MEAN_ANOMALY": 221.6174,
    "EPHEMERIS_TYPE": 0,
    "CLASSIFICATION_TYPE": "U",
    "NORAD_CAT_ID": 57187,
    "ELEMENT_SET_NO": 999,
    "REV_AT_EPOCH": 9947,
    "BSTAR": 0.0016892,
    "MEAN_MOTION_DOT": 0.0003441,
    "MEAN_MOTION_DDOT": 0
  },
  {
    "OBJECT_NAME": "VIZARD-METEO (RS38S)",
    "OBJECT_ID": "2023-091Z",
    "EPOCH": "2025-04-16T21:56:03.649632",
    "MEAN_MOTION": 15.22045495,
    "ECCENTRICITY": 0.0011442,
    "INCLINATION": 97.5645,
    "RA_OF_ASC_NODE": 166.1474,
    "ARG_OF_PERICENTER": 133.9668,
    "MEAN_ANOMALY": 226.2513,
    "EPHEMERIS_TYPE": 0,
    "CLASSIFICATION_TYPE": "U",
    "NORAD_CAT_ID": 57189,
    "ELEMENT_SET_NO": 999,
    "REV_AT_EPOCH": 9957,
    "BSTAR": 0.0025089,
    "MEAN_MOTION_DOT": 0.00057788,
    "MEAN_MOTION_DDOT": 0
  },
  {
    "OBJECT_NAME": "NANOZOND 1 (RS49S)",
    "OBJECT_ID": "2023-091AA",
    "EPOCH": "2025-04-16T21:46:56.910432",
    "MEAN_MOTION": 15.3244226,
    "ECCENTRICITY": 0.0008935,
    "INCLINATION": 97.56,
    "RA_OF_ASC_NODE": 169.1391,
    "ARG_OF_PERICENTER": 133.4571,
    "MEAN_ANOMALY": 226.7415,
    "EPHEMERIS_TYPE": 0,
    "CLASSIFICATION_TYPE": "U",
    "NORAD_CAT_ID": 57190,
    "ELEMENT_SET_NO": 999,
    "REV_AT_EPOCH": 9978,
    "BSTAR": 0.0032151,
    "MEAN_MOTION_DOT": 0.00101992,
    "MEAN_MOTION_DDOT": 0
  },
  {
    "OBJECT_NAME": "POLYTECH-UNIVERSE 3 (RS46S)",
    "OBJECT_ID": "2023-091AB",
    "EPOCH": "2025-04-16T22:43:47.855424",
    "MEAN_MOTION": 15.13794853,
    "ECCENTRICITY": 0.001818,
    "INCLINATION": 97.5629,
    "RA_OF_ASC_NODE": 162.5116,
    "ARG_OF_PERICENTER": 161.677,
    "MEAN_ANOMALY": 198.512,
    "EPHEMERIS_TYPE": 0,
    "CLASSIFICATION_TYPE": "U",
    "NORAD_CAT_ID": 57191,
    "ELEMENT_SET_NO": 999,
    "REV_AT_EPOCH": 9935,
    "BSTAR": 0.0013437,
    "MEAN_MOTION_DOT": 0.00024346,
    "MEAN_MOTION_DDOT": 0
  },
  {
    "OBJECT_NAME": "UTMN 2 (RS27S)",
    "OBJECT_ID": "2023-091AP",
    "EPOCH": "2025-04-16T21:30:15.509376",
    "MEAN_MOTION": 15.20471319,
    "ECCENTRICITY": 0.0011944,
    "INCLINATION": 97.5647,
    "RA_OF_ASC_NODE": 165.5529,
    "ARG_OF_PERICENTER": 135.1209,
    "MEAN_ANOMALY": 225.0994,
    "EPHEMERIS_TYPE": 0,
    "CLASSIFICATION_TYPE": "U",
    "NORAD_CAT_ID": 57203,
    "ELEMENT_SET_NO": 999,
    "REV_AT_EPOCH": 9953,
    "BSTAR": 0.001912,
    "MEAN_MOTION_DOT": 0.0004196,
    "MEAN_MOTION_DDOT": 0
  },
  {
    "OBJECT_NAME": "ARCCUBE 1 (RS25S)",
    "OBJECT_ID": "2023-091AR",
    "EPOCH": "2025-04-16T22:50:04.479936",
    "MEAN_MOTION": 15.39877183,
    "ECCENTRICITY": 0.0007952,
    "INCLINATION": 97.552,
    "RA_OF_ASC_NODE": 170.6447,
    "ARG_OF_PERICENTER": 134.3719,
    "MEAN_ANOMALY": 225.8179,
    "EPHEMERIS_TYPE": 0,
    "CLASSIFICATION_TYPE": "U",
    "NORAD_CAT_ID": 57205,
    "ELEMENT_SET_NO": 999,
    "REV_AT_EPOCH": 9990,
    "BSTAR": 0.0048207,
    "MEAN_MOTION_DOT": 0.00196356,
    "MEAN_MOTION_DDOT": 0
  },
  {
    "OBJECT_NAME": "KUZGTU 1 (RS47S)",
    "OBJECT_ID": "2023-091AV",
    "EPOCH": "2025-04-16T22:44:10.717728",
    "MEAN_MOTION": 15.18904242,
    "ECCENTRICITY": 0.0015379,
    "INCLINATION": 97.5635,
    "RA_OF_ASC_NODE": 164.155,
    "ARG_OF_PERICENTER": 147.3452,
    "MEAN_ANOMALY": 212.8736,
    "EPHEMERIS_TYPE": 0,
    "CLASSIFICATION_TYPE": "U",
    "NORAD_CAT_ID": 57217,
    "ELEMENT_SET_NO": 999,
    "REV_AT_EPOCH": 9945,
    "BSTAR": 0.0019463,
    "MEAN_MOTION_DOT": 0.00040861,
    "MEAN_MOTION_DDOT": 0
  },
  {
    "OBJECT_NAME": "SONATE-2",
    "OBJECT_ID": "2024-043Q",
    "EPOCH": "2025-04-16T21:39:28.157472",
    "MEAN_MOTION": 15.33604986,
    "ECCENTRICITY": 0.0010376,
    "INCLINATION": 97.5059,
    "RA_OF_ASC_NODE": 237.1094,
    "ARG_OF_PERICENTER": 304.7406,
    "MEAN_ANOMALY": 55.2859,
    "EPHEMERIS_TYPE": 0,
    "CLASSIFICATION_TYPE": "U",
    "NORAD_CAT_ID": 59112,
    "ELEMENT_SET_NO": 999,
    "REV_AT_EPOCH": 6210,
    "BSTAR": 0.0020245,
    "MEAN_MOTION_DOT": 0.00066294,
    "MEAN_MOTION_DDOT": 0
  },
  {
    "OBJECT_NAME": "MESAT1",
    "OBJECT_ID": "2024-125G",
    "EPOCH": "2025-04-16T12:51:42.014016",
    "MEAN_MOTION": 15.33834699,
    "ECCENTRICITY": 0.0018694,
    "INCLINATION": 97.2858,
    "RA_OF_ASC_NODE": 318.8184,
    "ARG_OF_PERICENTER": 335.1717,
    "MEAN_ANOMALY": 24.8625,
    "EPHEMERIS_TYPE": 0,
    "CLASSIFICATION_TYPE": "U",
    "NORAD_CAT_ID": 60209,
    "ELEMENT_SET_NO": 999,
    "REV_AT_EPOCH": 4366,
    "BSTAR": 0.00091134,
    "MEAN_MOTION_DOT": 0.0002999,
    "MEAN_MOTION_DDOT": 0
  },
  {
    "OBJECT_NAME": "OOV-CUBE (TUBSAT-30)",
    "OBJECT_ID": "2024-128F",
    "EPOCH": "2025-04-16T19:16:40.061280",
    "MEAN_MOTION": 14.99878958,
    "ECCENTRICITY": 0.0046299,
    "INCLINATION": 61.9963,
    "RA_OF_ASC_NODE": 269.0974,
    "ARG_OF_PERICENTER": 42.32,
    "MEAN_ANOMALY": 318.1446,
    "EPHEMERIS_TYPE": 0,
    "CLASSIFICATION_TYPE": "U",
    "NORAD_CAT_ID": 60240,
    "ELEMENT_SET_NO": 999,
    "REV_AT_EPOCH": 4209,
    "BSTAR": 0.00045815,
    "MEAN_MOTION_DOT": 5.633e-5,
    "MEAN_MOTION_DDOT": 0
  }
]
