CUBESX-HSE 3 (RS42S)    
1 57178U 23091N   25106.94153000  .00042051  00000+0  19709-2 0  9998
2 57178  97.5659 164.5300 0015372 145.8813 214.3412 15.19456703 99464
MONITOR-3 (RS58S)       
1 57180U 23091Q   25106.91267965  .00039193  00000+0  19186-2 0  9996
2 57180  97.5653 163.9017 0015802 147.9999 212.2198 15.17956713 99423
MONITOR-4 (RS57S)       
1 57182U 23091S   25106.91070381  .00040401  00000+0  19748-2 0  9990
2 57182  97.5648 163.8577 0015824 148.5728 211.6454 15.18000679 99420
MONITOR-2 (RS39S)       
1 57184U 23091U   25106.94453064  .00020179  00000+0  11188-2 0  9998
2 57184  97.5660 162.9474 0013787 144.8515 215.3628 15.13733660 99366
SVYATOBOR 1 (RS60S)     
1 57187U 23091X   25106.94356115  .00034410  00000+0  16892-2 0  9990
2 57187  97.5659 164.6439 0012859 138.6037 221.6174 15.17927255 99473
VIZARD-METEO (RS38S)    
1 57189U 23091Z   25106.91393113  .00057788  00000+0  25089-2 0  9999
2 57189  97.5645 166.1474 0011442 133.9668 226.2513 15.22045495 99573
NANOZOND 1 (RS49S)      
1 57190U 23091AA  25106.90760313  .00101992  00000+0  32151-2 0  9995
2 57190  97.5600 169.1391 0008935 133.4571 226.7415 15.32442260 99789
POLYTECH-UNIVERSE 3 (R*)
1 57191U 23091AB  25106.94708166  .00024346  00000+0  13437-2 0  9991
2 57191  97.5629 162.5116 0018180 161.6770 198.5120 15.13794853 99359
UTMN 2 (RS27S)          
1 57203U 23091AP  25106.89601284  .00041960  00000+0  19120-2 0  9998
2 57203  97.5647 165.5529 0011944 135.1209 225.0994 15.20471319 99530
ARCCUBE 1 (RS25S)       
1 57205U 23091AR  25106.95144074  .00196356  00000+0  48207-2 0  9994
2 57205  97.5520 170.6447 0007952 134.3719 225.8179 15.39877183 99902
KUZGTU 1 (RS47S)        
1 57217U 23091AV  25106.94734627  .00040861  00000+0  19463-2 0  9996
2 57217  97.5635 164.1550 0015379 147.3452 212.8736 15.18904242 99454
SONATE-2                
1 59112U 24043Q   25106.90240923  .00066294  00000+0  20245-2 0  9995
2 59112  97.5059 237.1094 0010376 304.7406  55.2859 15.33604986 62100
MESAT1                  
1 60209U 24125G   25106.53590294  .00029990  00000+0  91134-3 0  9991
2 60209  97.2858 318.8184 0018694 335.1717  24.8625 15.33834699 43663
OOV-CUBE (TUBSAT-30)    
1 60240U 24128F   25106.80324145  .00005633  00000+0  45815-3 0  9992
2 60240  61.9963 269.0974 0046299  42.3200 318.1446 14.99878958 42096
